{"fetched_at":"2026-03-30T13:17:50Z","count":15418,"tles":[{"name":"STARLINK-35764","line1":"1 67109U 25299H   26087.62496590  .00031402  00000+0  11454-2 0  9990","line2":"2 67109  42.9991  61.9300 0000755 256.6443 103.4325 15.27590605 17102","category":"Starlink"}]}