{
  "norad_id": 67109,
  "name": "STARLINK-35764",
  "history": [
    {
      "epoch": "2026-03-28T14:59:57.053760",
      "apogee_km": 483.53535819098306,
      "perigee_km": 482.4993238854877,
      "latitude_deg": -42.79950953033156,
      "longitude_deg": -129.10327360010706,
      "semi_major_axis_km": 6861.1543410382355,
      "eccentricity": 7.55e-05,
      "inclination_deg": 42.9991,
      "raan_deg": 61.93,
      "arg_perigee_deg": 256.6443,
      "mean_anomaly_deg": 103.4325,
      "mean_motion_rev_day": 15.27590605
    }
  ]
}